CTC1_L_00509001-01
1 10000U 24879OY  26075.70037037  .00000000  00000+0  00000-0 0  9997
2 10000  97.4000   0.0000 0000000   0.0000   0.0000 15.10393183    18
CTC1_L_00509001-02
1 10001U 25792WW  26075.70037037  .00000000  00000+0  00000-0 0  9993
2 10001  97.4000   0.0000 0000000   0.0000 180.0000 15.10393183    18
CTC1_L_00509002-01
1 10002U 25271YY  26075.70037037  .00000000  00000+0  00000-0 0  9996
2 10002  97.4000  12.0000 0000000   0.0000  24.0000 15.10393183    19
CTC1_L_00509002-02
1 10003U 22096BO  26075.70037037  .00000000  00000+0  00000-0 0  9999
2 10003  97.4000  12.0000 0000000   0.0000 204.0000 15.10393183    10
CTC1_L_00509003-01
1 10004U 26675BR  26075.70037037  .00000000  00000+0  00000-0 0  9997
2 10004  97.4000  24.0000 0000000   0.0000  48.0000 15.10393183    10
CTC1_L_00509003-02
1 10005U 25656CE  26075.70037037  .00000000  00000+0  00000-0 0  9996
2 10005  97.4000  24.0000 0000000   0.0000 228.0000 15.10393183    11
CTC1_L_00509004-01
1 10006U 24314UL  26075.70037037  .00000000  00000+0  00000-0 0  9997
2 10006  97.4000  36.0000 0000000   0.0000  72.0000 15.10393183    12
CTC1_L_00509004-02
1 10007U 23438XE  26075.70037037  .00000000  00000+0  00000-0 0  9994
2 10007  97.4000  36.0000 0000000   0.0000 252.0000 15.10393183    13
CTC1_L_00509005-01
1 10008U 26178B   26075.70037037  .00000000  00000+0  00000-0 0  9999
2 10008  97.4000  48.0000 0000000   0.0000  96.0000 15.10393183    13
CTC1_L_00509005-02
1 10009U 25151GQ  26075.70037037  .00000000  00000+0  00000-0 0  9990
2 10009  97.4000  48.0000 0000000   0.0000 276.0000 15.10393183    14
CTC1_L_00509006-01
1 10010U 24571CD  26075.70037037  .00000000  00000+0  00000-0 0  9997
2 10010  97.4000  60.0000 0000000   0.0000 120.0000 15.10393183    18
CTC1_L_00509006-02
1 10011U 25344MM  26075.70037037  .00000000  00000+0  00000-0 0  9997
2 10011  97.4000  60.0000 0000000   0.0000 300.0000 15.10393183    19
CTC1_L_00509007-01
1 10012U 22731EC  26075.70037037  .00000000  00000+0  00000-0 0  9995
2 10012  97.4000  72.0000 0000000   0.0000 144.0000 15.10393183    19
CTC1_L_00509007-02
1 10013U 26213OC  26075.70037037  .00000000  00000+0  00000-0 0  9995
2 10013  97.4000  72.0000 0000000   0.0000 324.0000 15.10393183    10
CTC1_L_00509008-01
1 10014U 22654TA  26075.70037037  .00000000  00000+0  00000-0 0  9991
2 10014  97.4000  84.0000 0000000   0.0000 168.0000 15.10393183    10
CTC1_L_00509008-02
1 10015U 22003IF  26075.70037037  .00000000  00000+0  00000-0 0  9990
2 10015  97.4000  84.0000 0000000   0.0000 348.0000 15.10393183    11
CTC1_L_00509009-01
1 10016U 23375TK  26075.70037037  .00000000  00000+0  00000-0 0  9994
2 10016  97.4000  96.0000 0000000   0.0000 192.0000 15.10393183    12
CTC1_L_00509009-02
1 10017U 23063VR  26075.70037037  .00000000  00000+0  00000-0 0  9999
2 10017  97.4000  96.0000 0000000   0.0000  12.0000 15.10393183    14
CTC1_L_00509010-01
1 10018U 23907VH  26075.70037037  .00000000  00000+0  00000-0 0  9997
2 10018  97.4000 108.0000 0000000   0.0000 216.0000 15.10393183    15
CTC1_L_00509010-02
1 10019U 24584VW  26075.70037037  .00000000  00000+0  00000-0 0  9990
2 10019  97.4000 108.0000 0000000   0.0000  36.0000 15.10393183    16
CTC1_L_00509011-01
1 10020U 25649KH  26075.70037037  .00000000  00000+0  00000-0 0  9995
2 10020  97.4000 120.0000 0000000   0.0000 240.0000 15.10393183    19
CTC1_L_00509011-02
1 10021U 23757XF  26075.70037037  .00000000  00000+0  00000-0 0  9994
2 10021  97.4000 120.0000 0000000   0.0000  60.0000 15.10393183    10
CTC1_L_00509012-01
1 10022U 24097PK  26075.70037037  .00000000  00000+0  00000-0 0  9993
2 10022  97.4000 132.0000 0000000   0.0000 264.0000 15.10393183    10
CTC1_L_00509012-02
1 10023U 22363XP  26075.70037037  .00000000  00000+0  00000-0 0  9998
2 10023  97.4000 132.0000 0000000   0.0000  84.0000 15.10393183    11
CTC1_L_00509013-01
1 10024U 26602RJ  26075.70037037  .00000000  00000+0  00000-0 0  9999
2 10024  97.4000 144.0000 0000000   0.0000 288.0000 15.10393183    11
CTC1_L_00509013-02
1 10025U 25793L   26075.70037037  .00000000  00000+0  00000-0 0  9990
2 10025  97.4000 144.0000 0000000   0.0000 108.0000 15.10393183    13
CTC1_L_00509014-01
1 10026U 24223PX  26075.70037037  .00000000  00000+0  00000-0 0  9998
2 10026  97.4000 156.0000 0000000   0.0000 312.0000 15.10393183    14
CTC1_L_00509014-02
1 10027U 22407EL  26075.70037037  .00000000  00000+0  00000-0 0  9991
2 10027  97.4000 156.0000 0000000   0.0000 132.0000 15.10393183    15
CTC1_L_00509015-01
1 10028U 24146RG  26075.70037037  .00000000  00000+0  00000-0 0  9994
2 10028  97.4000 168.0000 0000000   0.0000 336.0000 15.10393183    15
CTC1_L_00509015-02
1 10029U 25492DT  26075.70037037  .00000000  00000+0  00000-0 0  9990
2 10029  97.4000 168.0000 0000000   0.0000 156.0000 15.10393183    16
CTC1_L_00509016-01
1 10030U 24140LC  26075.70037037  .00000000  00000+0  00000-0 0  9991
2 10030  97.4000 180.0000 0000000   0.0000   0.0000 15.10393183    10
CTC1_L_00509016-02
1 10031U 26883YH  26075.70037037  .00000000  00000+0  00000-0 0  9998
2 10031  97.4000 180.0000 0000000   0.0000 180.0000 15.10393183    10
CTC1_L_00509017-01
1 10032U 24160VT  26075.70037037  .00000000  00000+0  00000-0 0  9995
2 10032  97.4000 192.0000 0000000   0.0000  24.0000 15.10393183    11
CTC1_L_00509017-02
1 10033U 22950CG  26075.70037037  .00000000  00000+0  00000-0 0  9991
2 10033  97.4000 192.0000 0000000   0.0000 204.0000 15.10393183    12
CTC1_L_00509018-01
1 10034U 22747CC  26075.70037037  .00000000  00000+0  00000-0 0  9996
2 10034  97.4000 204.0000 0000000   0.0000  48.0000 15.10393183    13
CTC1_L_00509018-02
1 10035U 24405MI  26075.70037037  .00000000  00000+0  00000-0 0  9990
2 10035  97.4000 204.0000 0000000   0.0000 228.0000 15.10393183    14
CTC1_L_00509019-01
1 10036U 23469PC  26075.70037037  .00000000  00000+0  00000-0 0  9990
2 10036  97.4000 216.0000 0000000   0.0000  72.0000 15.10393183    15
CTC1_L_00509019-02
1 10037U 26353QS  26075.70037037  .00000000  00000+0  00000-0 0  9996
2 10037  97.4000 216.0000 0000000   0.0000 252.0000 15.10393183    16
CTC1_L_00509020-01
1 10038U 26785VC  26075.70037037  .00000000  00000+0  00000-0 0  9996
2 10038  97.4000 228.0000 0000000   0.0000  96.0000 15.10393183    16
CTC1_L_00509020-02
1 10039U 25310TI  26075.70037037  .00000000  00000+0  00000-0 0  9990
2 10039  97.4000 228.0000 0000000   0.0000 276.0000 15.10393183    17
CTC1_L_00509021-01
1 10040U 24809OF  26075.70037037  .00000000  00000+0  00000-0 0  9994
2 10040  97.4000 240.0000 0000000   0.0000 120.0000 15.10393183    11
CTC1_L_00509021-02
1 10041U 24947KS  26075.70037037  .00000000  00000+0  00000-0 0  9998
2 10041  97.4000 240.0000 0000000   0.0000 300.0000 15.10393183    12
CTC1_L_00509022-01
1 10042U 26083UT  26075.70037037  .00000000  00000+0  00000-0 0  9992
2 10042  97.4000 252.0000 0000000   0.0000 144.0000 15.10393183    12
CTC1_L_00509022-02
1 10043U 25818LS  26075.70037037  .00000000  00000+0  00000-0 0  9998
2 10043  97.4000 252.0000 0000000   0.0000 324.0000 15.10393183    13
CTC1_L_00509023-01
1 10044U 25004YN  26075.70037037  .00000000  00000+0  00000-0 0  9996
2 10044  97.4000 264.0000 0000000   0.0000 168.0000 15.10393183    13
CTC1_L_00509023-02
1 10045U 25335XQ  26075.70037037  .00000000  00000+0  00000-0 0  9994
2 10045  97.4000 264.0000 0000000   0.0000 348.0000 15.10393183    14
CTC1_L_00509024-01
1 10046U 24177EI  26075.70037037  .00000000  00000+0  00000-0 0  9998
2 10046  97.4000 276.0000 0000000   0.0000 192.0000 15.10393183    15
CTC1_L_00509024-02
1 10047U 26045FO  26075.70037037  .00000000  00000+0  00000-0 0  9995
2 10047  97.4000 276.0000 0000000   0.0000  12.0000 15.10393183    17
CTC1_L_00509025-01
1 10048U 24935TY  26075.70037037  .00000000  00000+0  00000-0 0  9992
2 10048  97.4000 288.0000 0000000   0.0000 216.0000 15.10393183    17
CTC1_L_00509025-02
1 10049U 24891BP  26075.70037037  .00000000  00000+0  00000-0 0  9994
2 10049  97.4000 288.0000 0000000   0.0000  36.0000 15.10393183    18
CTC1_L_00509026-01
1 10050U 22297JY  26075.70037037  .00000000  00000+0  00000-0 0  9994
2 10050  97.4000 300.0000 0000000   0.0000 240.0000 15.10393183    12
CTC1_L_00509026-02
1 10051U 23119PT  26075.70037037  .00000000  00000+0  00000-0 0  9999
2 10051  97.4000 300.0000 0000000   0.0000  60.0000 15.10393183    13
CTC1_L_00509027-01
1 10052U 24380FN  26075.70037037  .00000000  00000+0  00000-0 0  9991
2 10052  97.4000 312.0000 0000000   0.0000 264.0000 15.10393183    13
CTC1_L_00509027-02
1 10053U 26545CB  26075.70037037  .00000000  00000+0  00000-0 0  9997
2 10053  97.4000 312.0000 0000000   0.0000  84.0000 15.10393183    14
CTC1_L_00509028-01
1 10054U 25711ZW  26075.70037037  .00000000  00000+0  00000-0 0  9992
2 10054  97.4000 324.0000 0000000   0.0000 288.0000 15.10393183    14
CTC1_L_00509028-02
1 10055U 26579QR  26075.70037037  .00000000  00000+0  00000-0 0  9996
2 10055  97.4000 324.0000 0000000   0.0000 108.0000 15.10393183    16
CTC1_L_00509029-01
1 10056U 23993DC  26075.70037037  .00000000  00000+0  00000-0 0  9994
2 10056  97.4000 336.0000 0000000   0.0000 312.0000 15.10393183    17
CTC1_L_00509029-02
1 10057U 26344FK  26075.70037037  .00000000  00000+0  00000-0 0  9998
2 10057  97.4000 336.0000 0000000   0.0000 132.0000 15.10393183    18
CTC1_L_00509030-01
1 10058U 23619VP  26075.70037037  .00000000  00000+0  00000-0 0  9991
2 10058  97.4000 348.0000 0000000   0.0000 336.0000 15.10393183    18
CTC1_L_00509030-02
1 10059U 23266WY  26075.70037037  .00000000  00000+0  00000-0 0  9990
2 10059  97.4000 348.0000 0000000   0.0000 156.0000 15.10393183    19
